TIANMU-1 20             
1 58661U 23208B   26194.56536937  .00004721  00000+0  14986-3 0  9991
2 58661  97.4468 311.6721 0006191 218.3962 141.6841 15.33148682141467
TIANMU-1 21             
1 58662U 23208C   26194.57856992  .00005689  00000+0  16705-3 0  9994
2 58662  97.4527 314.4817 0006548 210.2222 149.8645 15.35533016141617
TIANMU-1 22             
1 58663U 23208D   26194.60430056  .00004251  00000+0  14272-3 0  9999
2 58663  97.4522 310.9617 0002618 225.6282 134.4745 15.31412872141378
TIANMU-1 15             
1 58700U 24004A   26194.63997521  .00003130  00000+0  12127-3 0  9996
2 58700  97.4666  20.8306 0005930 235.2103 124.8578 15.26904049139819
TIANMU-1 16             
1 58701U 24004B   26194.62954687  .00003022  00000+0  11682-3 0  9997
2 58701  97.4614  20.0377 0004383 253.2183 106.8575 15.27006888139814
TIANMU-1 17             
1 58702U 24004C   26194.61502687  .00003139  00000+0  12125-3 0  9998
2 58702  97.4639  20.5178 0003860 259.7909 100.2894 15.27005048139800
TIANMU-1 18             
1 58703U 24004D   26194.65656008  .00003006  00000+0  11656-3 0  9991
2 58703  97.4658  20.8219 0003638 232.1092 127.9818 15.26920803139819
INSAT-3DS               
1 58990U 24033A   26194.57730792 -.00000160  00000+0  00000+0 0  9991
2 58990   0.0959 265.0399 0001034 225.6037  90.7107  1.00271042 47331
METEOR-M2 4             
1 59051U 24039A   26194.63200904 -.00000022  00000+0  95684-5 0  9995
2 59051  98.7024 153.5997 0008249  92.6298 267.5824 14.22432031123024
GOES 19                 
1 60133U 24119A   26194.54612728 -.00000252  00000+0  00000+0 0  9995
2 60133   0.0030 272.3551 0000446 304.8834 195.5900  1.00271894  7229
MTG-S1                  
1 64723U 25143A   26194.56094735 -.00000011  00000+0  00000+0 0  9999
2 64723   0.5854 344.6795 0003495 262.0460 246.2339  1.00273149  3688
METOP-SGA1              
1 65159U 25172A   26194.63688919  .00000017  00000+0  28260-4 0  9994
2 65159  98.6631 253.8053 0007159 336.9173  23.1681 14.19819029 47546
FENGYUN 3H              
1 65815U 25219A   26194.46584789 -.00000005  00000+0  18203-4 0  9990
2 65815  98.6771 134.7248 0001193  63.3267 296.8032 14.19924638 41119
