OBJECT_NAME,OBJECT_ID,EPOCH,MEAN_MOTION,ECCENTRICITY,INCLINATION,RA_OF_ASC_NODE,ARG_OF_PERICENTER,MEAN_ANOMALY,EPHEMERIS_TYPE,CLASSIFICATION_TYPE,NORAD_CAT_ID,ELEMENT_SET_NO,REV_AT_EPOCH,BSTAR,MEAN_MOTION_DOT,MEAN_MOTION_DDOT
TIANMU-1 20,2023-208B,2026-07-13T13:34:07.913568,15.33148682,.00061919,97.4468,311.6721,218.3962,141.6841,0,U,58661,999,14146,.14986293E-3,.4721E-4,0
TIANMU-1 21,2023-208C,2026-07-13T13:53:08.441088,15.35533016,.00065489,97.4527,314.4817,210.2222,149.8645,0,U,58662,999,14161,.16705385E-3,.5689E-4,0
TIANMU-1 22,2023-208D,2026-07-13T14:30:11.568384,15.31412872,.0002618,97.4522,310.9617,225.6282,134.4745,0,U,58663,999,14137,.14272069E-3,.4251E-4,0
TIANMU-1 15,2024-004A,2026-07-13T15:21:33.858144,15.26904049,.00059306,97.4666,20.8306,235.2103,124.8578,0,U,58700,999,13981,.12127199E-3,.313E-4,0
TIANMU-1 16,2024-004B,2026-07-13T15:06:32.849568,15.27006888,.00043839,97.4614,20.0377,253.2183,106.8575,0,U,58701,999,13981,.11682014E-3,.3022E-4,0
TIANMU-1 17,2024-004C,2026-07-13T14:45:38.321568,15.27005048,.00038609,97.4639,20.5178,259.7909,100.2894,0,U,58702,999,13980,.1212519E-3,.3139E-4,0
TIANMU-1 18,2024-004D,2026-07-13T15:45:26.790912,15.26920803,.00036384,97.4658,20.8219,232.1092,127.9818,0,U,58703,999,13981,.116556E-3,.3006E-4,0
INSAT-3DS,2024-033A,2026-07-13T13:51:19.404288,1.00271042,.00010343,0.0959,265.0399,225.6037,90.7107,0,U,58990,999,4733,0,-.16E-5,0
METEOR-M2 4,2024-039A,2026-07-13T15:10:05.581056,14.22432031,.00082493,98.7024,153.5997,92.6298,267.5824,0,U,59051,999,12302,.9568423E-5,-.22E-6,0
GOES 19,2024-119A,2026-07-13T13:06:25.396992,1.00271894,.00004465,0.0030,272.3551,304.8834,195.5900,0,U,60133,999,722,0,-.252E-5,0
MTG-S1,2025-143A,2026-07-13T13:27:45.851040,1.00273149,.00034958,0.5854,344.6795,262.0460,246.2339,0,U,64723,999,368,0,-.11E-6,0
METOP-SGA1,2025-172A,2026-07-13T15:17:07.226016,14.19819029,.00071594,98.6631,253.8053,336.9173,23.1681,0,U,65159,999,4754,.28259905E-4,.17E-6,0
FENGYUN 3H,2025-219A,2026-07-13T11:10:49.257696,14.19924638,.00011932,98.6771,134.7248,63.3267,296.8032,0,U,65815,999,4111,.1820288E-4,-.5E-7,0
